[{"OBJECT_NAME":"STARLINK-6188","OBJECT_ID":"2023-061C","EPOCH":"2026-03-09T22:00:01.999584","MEAN_MOTION":15.15577604,"ECCENTRICITY":0.0001913,"INCLINATION":42.9997,"RA_OF_ASC_NODE":195.6439,"ARG_OF_PERICENTER":287.7673,"MEAN_ANOMALY":148.4713,"EPHEMERIS_TYPE":0,"CLASSIFICATION_TYPE":"U","NORAD_CAT_ID":56376,"ELEMENT_SET_NO":999,"REV_AT_EPOCH":577,"BSTAR":0.061946458,"MEAN_MOTION_DOT":0.01297316,"MEAN_MOTION_DDOT":0},{"OBJECT_NAME":"LEMUR-2-BASS","OBJECT_ID":"2023-174D","EPOCH":"2026-03-09T18:14:19.521888","MEAN_MOTION":15.39769194,"ECCENTRICITY":0.00082733,"INCLINATION":97.3876,"RA_OF_ASC_NODE":152.3241,"ARG_OF_PERICENTER":162.4261,"MEAN_ANOMALY":197.7273,"EPHEMERIS_TYPE":0,"CLASSIFICATION_TYPE":"U","NORAD_CAT_ID":58259,"ELEMENT_SET_NO":999,"REV_AT_EPOCH":13004,"BSTAR":0.00047558591,"MEAN_MOTION_DOT":0.00018791,"MEAN_MOTION_DDOT":0}]
